UNIGE_CUBESAT1
1 00001U 17021A   16303.82790574  .00000605  00000-0  72029-4 0  0016
2 00001  90.0000 000.0000 0000000 090.0000 000.0000 13.71901367460649
UNIGE_CUBESAT2
1 00002U 17021A   16303.82790574  .00000605  00000-0  72029-4 0  0017
2 00002  90.0000 000.0000 0000000 090.0000 036.0000 13.71901367460649
UNIGE_CUBESAT3
1 00003U 17021A   16303.82790574  .00000605  00000-0  72029-4 0  0018
2 00003  90.0000 000.0000 0000000 090.0000 072.0000 13.71901367460640
UNIGE_CUBESAT4
1 00004U 17021A   16303.82790574  .00000605  00000-0  72029-4 0  0019
2 00004  90.0000 000.0000 0000000 090.0000 108.0000 13.71901367460641
UNIGE_CUBESAT5
1 00005U 17021A   16303.82790574  .00000605  00000-0  72029-4 0  0010
2 00005  90.0000 000.0000 0000000 090.0000 144.0000 13.71901367460642
UNIGE_CUBESAT6
1 00006U 17021A   16303.82790574  .00000605  00000-0  72029-4 0  0011
2 00006  90.0000 000.0000 0000000 090.0000 180.0000 13.71901367460643
UNIGE_CUBESAT7
1 00007U 17021A   16303.82790574  .00000605  00000-0  72029-4 0  0012
2 00007  90.0000 000.0000 0000000 090.0000 216.0000 13.71901367460644
UNIGE_CUBESAT8
1 00008U 17021A   16303.82790574  .00000605  00000-0  72029-4 0  0013
2 00008  90.0000 000.0000 0000000 090.0000 252.0000 13.71901367460645
UNIGE_CUBESAT9
1 00009U 17021A   16303.82790574  .00000605  00000-0  72029-4 0  0014
2 00009  90.0000 000.0000 0000000 090.0000 288.0000 13.71901367460645
UNIGE_CUBESAT10
1 00010U 17021A   16303.82790574  .00000605  00000-0  72029-4 0  0016
2 00010  90.0000 000.0000 0000000 090.0000 324.0000 13.71901367460648
